ONEWEB-0320             
1 49190U 21083E   25195.57440211  .00000040  00000+0  67785-4 0  9993
2 49190  87.9126  42.5447 0001782  84.3419 275.7916 13.18685161186766
ONEWEB-0321             
1 49191U 21083F   25195.17412132  .00000038  00000+0  61113-4 0  9997
2 49191  87.9276 341.7693 0002147  91.2253 268.9126 13.20771634193498
ONEWEB-0322             
1 49192U 21083G   25194.77452059  .00000110  00000+0  26622-3 0  9991
2 49192  87.8959  27.4981 0002210  84.6783 275.4599 13.13470942186498
ONEWEB-0324             
1 49193U 21083H   25194.80244618  .00000046  00000+0  83940-4 0  9991
2 49193  87.9126  42.6783 0001789  81.3780 278.7554 13.18685062185409
ONEWEB-0325             
1 49194U 21083J   25194.80575669  .00000055  00000+0  10672-3 0  9996
2 49194  87.9127  42.6944 0001916  86.4168 273.7183 13.18686701185413
ONEWEB-0326             
1 49195U 21083K   25195.57949025  .00000073  00000+0  15139-3 0  9996
2 49195  87.9123  42.5302 0001525  95.2976 264.8330 13.18686814186789
ONEWEB-0327             
1 49196U 21083L   25195.57921425  .00000006  00000+0 -16377-4 0  9994
2 49196  87.9121  42.5592 0001619  95.2827 264.8490 13.18685237186806
ONEWEB-0328             
1 49197U 21083M   25195.52614517  .00000341  00000+0  89916-3 0  9990
2 49197  87.8948  27.2902 0001715  84.6372 275.4953 13.13470211187860
